2019-093F               
1 44884U 19093F   20246.05736880  .00000117  00000-0  21551-4 0  9998
2 44884  97.9526 321.6584 0014471 151.2266 208.9756 14.81851622 38047
FLORIPASAT-1            
1 44885U 19093G   20246.15642614  .00000190  00000-0  30683-4 0  9998
2 44885  97.9542 321.8921 0015339 153.8238 206.3759 14.82068350 38060
2019-093H               
1 44886U 19093H   20246.16306246  .00000104  00000-0  19661-4 0  9996
2 44886  97.9555 322.0894 0015820 159.7874 200.3977 14.82401343 38073
2019-093J               
1 44887U 19093J   20246.16475382  .00000068  00000-0  15272-4 0  9998
2 44887  97.9554 322.0719 0015707 159.2377 200.9492 14.82382258 38077
ELEKTRO-L 3             
1 44903U 19095A   20245.88342583 -.00000119  00000-0  00000-0 0  9990
2 44903   0.0236  73.4041 0001582 119.2684 182.9405  1.00272220  2523
GONETS-M 14             
1 44905U 19096A   20245.86497169  .00000027  00000-0  12007-3 0  9992
2 44905  82.5247 315.4256 0015194  90.5722 269.7098 12.42893586 31040
GONETS-M 15             
1 44906U 19096B   20246.13317468  .00000043  00000-0  23634-3 0  9993
2 44906  82.5268 315.3544 0017240 110.8136 249.4792 12.42886919 31062
GONETS-M 16             
1 44907U 19096C   20245.84322437  .00000030  00000-0  14349-3 0  9992
2 44907  82.5208 315.4535 0012126 141.7224 218.4719 12.43176437 31026
RS-44 & BREEZE-KM R/B   
1 44909U 19096E   20245.89971736  .00000036  00000-0  93055-4 0  9999
2 44909  82.5212 304.5241 0218147  48.0123 313.9331 12.79707653 31967
SHIJIAN-20 (SJ-20)      
1 44910U 19097A   20245.85910344 -.00000376  00000-0  00000-0 0  9998
2 44910   0.3913  94.9166 0027981 144.4071 176.1131  1.00254427  2499
STARLINK-1073           
1 44914U 20001A   20245.91667824  .00019104  00000-0  13271-2 0  9992
2 44914  52.9996  31.2836 0001197 107.5271 265.6127 15.05571009 36188
STARLINK-1084           
1 44915U 20001B   20246.25001157  .00035776  00000-0  24637-2 0  9993
2 44915  52.9999  29.7858 0001488 112.1464 106.6693 15.05555964 36237
STARLINK-1097           
1 44916U 20001C   20246.25001157  .00083232  00000-0  56696-2 0  9994
2 44916  53.0002  29.7872 0001290 117.1950  47.6188 15.05546502 36238
STARLINK-1098           
1 44917U 20001D   20246.25001157  .00035258  00000-0  24282-2 0  9996
2 44917  53.0006  29.7877 0001535 122.9918  77.8554 15.05560786 36230
STARLINK-1099           
1 44918U 20001E   20245.91667824  .00024538  00000-0  16982-2 0  9995
2 44918  53.0013  31.2871 0001435 110.1144  29.0604 15.05562101  1768
STARLINK-1101           
1 44919U 20001F   20246.25001157  .00039233  00000-0  26972-2 0  9993
2 44919  53.0003  29.7860 0001329 102.5431 332.3248 15.05575807 36235
STARLINK-1102           
1 44920U 20001G   20245.91667824  .00020899  00000-0  14497-2 0  9993
2 44920  53.0003  31.2851 0001251 108.5417 300.6574 15.05567731 36180
STARLINK-1103           
1 44921U 20001H   20246.25001157  .00038392  00000-0  26401-2 0  9998
2 44921  53.0007  29.7868 0001192 113.6050 339.2644 15.05575848 36239
STARLINK-1104           
1 44922U 20001J   20246.25001157  .00036680  00000-0  25246-2 0  9993
2 44922  52.9994  29.7870 0001416 108.3489  20.4680 15.05564481 36232
STARLINK-1106           
1 44923U 20001K   20245.91667824  .00018350  00000-0  12755-2 0  9990
2 44923  53.0000  31.2839 0001212 102.2539 234.8518 15.05572787 36171
STARLINK-1111           
1 44924U 20001L   20246.25001157  .00040901  00000-0  28109-2 0  9997
2 44924  53.0001  29.7867 0001245 118.9277 279.9218 15.05568496 36231
STARLINK-1112           
1 44925U 20001M   20246.25001157  .00040735  00000-0  28016-2 0  9990
2 44925  53.0013  29.7865 0001352 108.5492 218.3290 15.05542708 36220
STARLINK-1113           
1 44926U 20001N   20246.25001157  .00039278  00000-0  27011-2 0  9995
2 44926  53.0002  29.7848 0001219 117.2050 173.6128 15.05563893 36972
STARLINK-1114           
1 44927U 20001P   20246.25001157 -.00011918  00000-0 -79998-3 0  9991
2 44927  53.0015  29.7877 0001227 117.6084 137.2877 15.05589790 36239
STARLINK-1119           
1 44928U 20001Q   20246.25001157  .00038327  00000-0  26362-2 0  9999
2 44928  52.9993  29.7863 0001102 112.2217 160.6565 15.05568211 36238
STARLINK-1121           
1 44929U 20001R   20246.25001157  .00041304  00000-0  28391-2 0  9993
2 44929  53.0013  29.7869 0001397 116.6081 246.2080 15.05557482 36234
STARLINK-1123           
1 44930U 20001S   20246.25001157  .00035197  00000-0  24248-2 0  9995
2 44930  52.9991  29.7879 0001316 117.6753  65.2064 15.05548502 36232
STARLINK-1128           
1 44931U 20001T   20245.91667824  .00023383  00000-0  16193-2 0  9991
2 44931  52.9998  31.2844 0001249 108.1055 192.9767 15.05565231 36927
STARLINK-1130 (DARKSAT) 
1 44932U 20001U   20245.91667824  .00023456  00000-0  16244-2 0  9990
2 44932  53.0009  31.2884 0001403 112.1091 116.9953 15.05562303 37419
STARLINK-1144           
1 44933U 20001V   20245.91667824  .00075805  00000-0  51756-2 0  9993
2 44933  53.0007  31.2876 0001137 110.0465 352.8960 15.05512331 37476
STARLINK-1071           
1 44934U 20001W   20245.91667824 -.00014897  00000-0 -10054-2 0  9996
2 44934  53.0009  11.2830 0001204 100.8616 256.4269 15.05580073 36453
STARLINK-1072           
1 44935U 20001X   20246.25001157  .00035747  00000-0  24607-2 0  9990
2 44935  52.9988   9.7907 0001166 122.7330  44.1980 15.05571831 36519
STARLINK-1078           
1 44936U 20001Y   20245.91667824 -.00009779  00000-0 -65298-3 0  9992
2 44936  53.0002  11.2936 0001186 103.1092 290.1990 15.05577797  1769
STARLINK-1079           
1 44937U 20001Z   20246.25001157  .00037971  00000-0  26126-2 0  9991
2 44937  53.0004   9.7863 0001192 117.8388  13.0951 15.05559516 36519
STARLINK-1082           
1 44938U 20001AA  20245.91667824 -.00014192  00000-0 -95640-3 0  9993
2 44938  52.9989  11.2864 0001136 111.0936 156.1718 15.05596881 36451
STARLINK-1083           
1 44939U 20001AB  20246.25001157  .00036898  00000-0  25396-2 0  9998
2 44939  52.9994   9.7943 0001342 120.9423 118.0187 15.05561170 36503
STARLINK-1091           
1 44940U 20001AC  20246.25001157  .00035275  00000-0  24285-2 0  9994
2 44940  52.9981   9.8005 0001413 124.4654  60.5227 15.05573899 36502
STARLINK-1094           
1 44941U 20001AD  20245.91667824 -.00008495  00000-0 -56456-3 0  9998
2 44941  52.9993  11.2870 0001001 112.5334 316.7151 15.05579019 36466
STARLINK-1096           
1 44942U 20001AE  20246.25001157  .00036697  00000-0  25266-2 0  9995
2 44942  52.9997   9.7879 0001100 111.2538  37.6058 15.05551757 36514
STARLINK-1100           
1 44943U 20001AF  20245.91667824 -.00012825  00000-0 -86232-3 0  9997
2 44943  52.9990  11.2875 0001064 107.9193 141.3104 15.05592394 36450
STARLINK-1108           
1 44944U 20001AG  20245.91667824 -.00029465  00000-0 -20110-2 0  9998
2 44944  53.0007  11.2844 0001111 118.8210 256.4985 15.05589863 36465
STARLINK-1109           
1 44945U 20001AH  20246.25001157  .00035303  00000-0  24306-2 0  9995
2 44945  52.9984   9.7942 0001275 109.4367  93.4880 15.05570490 36503
STARLINK-1110           
1 44946U 20001AJ  20245.91667824 -.00011624  00000-0 -77409-3 0  9992
2 44946  53.0044  11.2040 0001762  77.6718 320.2899 15.05854152 36463
STARLINK-1116           
1 44947U 20001AK  20245.91667824 -.00017774  00000-0 -12034-2 0  9997
2 44947  53.0011  11.2863 0001144 109.9407 355.3584 15.05590546 36463
STARLINK-1122           
1 44949U 20001AM  20245.91667824 -.00015963  00000-0 -10786-2 0  9999
2 44949  53.0011  11.2845 0001142 117.2199 186.0159 15.05590535 36457
STARLINK-1125           
1 44950U 20001AN  20245.91667824 -.00036730  00000-0 -25131-2 0  9996
2 44950  52.9982  11.2895 0001289 120.7639  92.5082 15.05604646 36454
STARLINK-1126           
1 44951U 20001AP  20245.91667824 -.00016455  00000-0 -11105-2 0  9995
2 44951  53.0032  11.2850 0001889  86.0167 213.2047 15.05653872 37741
STARLINK-1117           
1 44952U 20001AQ  20245.91667824 -.00010229  00000-0 -68357-3 0  9991
2 44952  53.0004  11.2840 0001335 107.0612 304.2010 15.05597682 36460
STARLINK-1124           
1 44953U 20001AR  20245.91667824 -.00016018  00000-0 -10825-2 0  9990
2 44953  53.0000  11.2844 0001162 102.8648 218.4062 15.05585920 37748
STARLINK-1066           
1 44954U 20001AS  20245.91667824 -.00029539  00000-0 -20151-2 0  9996
2 44954  52.9993 351.2839 0001075 103.8760  75.4988 15.05607386  1760
STARLINK-1069           
1 44955U 20001AT  20245.91667824 -.00028376  00000-0 -19350-2 0  9994
2 44955  53.0013 351.2863 0001083 127.9217 357.4731 15.05602478 36681
STARLINK-1070           
1 44956U 20001AU  20245.91667824 -.00038662  00000-0 -26476-2 0  9991
2 44956  52.9993 351.2856 0001373 112.5496  30.8871 15.05596406 36747
STARLINK-1074           
1 44957U 20001AV  20245.91667824 -.00034645  00000-0 -23682-2 0  9995
2 44957  52.9997 351.2864 0000908 120.4554 238.9394 15.05611985 36737
STARLINK-1075           
1 44958U 20001AW  20246.25001157  .00033164  00000-0  22853-2 0  9997
2 44958  53.0011 349.7902 0001567 116.5775 286.5322 15.05568634 36793
STARLINK-1076           
1 44959U 20001AX  20245.91667824 -.00034855  00000-0 -23830-2 0  9995
2 44959  52.9994 351.2911 0001134 107.4585 179.9261 15.05607600 36736
STARLINK-1077           
1 44960U 20001AY  20246.25001157  .00005972  00000-0  25099-4 0  9993
2 44960  53.0007 330.6931 0001121 109.3110 232.5503 15.87348854 37053
STARLINK-1080           
1 44961U 20001AZ  20245.91667824 -.00033486  00000-0 -22889-2 0  9990
2 44961  52.9999 351.2818 0001141 115.0923 136.3976 15.05597159  1761
STARLINK-1081           
1 44962U 20001BA  20246.25001157  .00026355  00000-0  18216-2 0  9994
2 44962  53.0000 349.7854 0001288 114.9803  54.1437 15.05572161 36792
STARLINK-1085           
1 44963U 20001BB  20245.76347707  .00002096  00000-0  16262-3 0  9990
2 44963  53.0026 351.9665 0000959 121.0468 239.0614 15.05661740 37464
